[{"OBJECT_NAME":"STARLINK-4467","OBJECT_ID":"2022-105AQ","EPOCH":"2026-03-09T15:07:27.381792","MEAN_MOTION":15.0125641,"ECCENTRICITY":0.0002534,"INCLINATION":97.6031,"RA_OF_ASC_NODE":310.2032,"ARG_OF_PERICENTER":167.742,"MEAN_ANOMALY":192.3866,"EPHEMERIS_TYPE":0,"CLASSIFICATION_TYPE":"U","NORAD_CAT_ID":53686,"ELEMENT_SET_NO":999,"REV_AT_EPOCH":19323,"BSTAR":0.00051511,"MEAN_MOTION_DOT":6.564e-5,"MEAN_MOTION_DDOT":0},{"OBJECT_NAME":"CZ-4C R\/B","OBJECT_ID":"2018-043B","EPOCH":"2026-03-09T16:58:49.840320","MEAN_MOTION":14.86896347,"ECCENTRICITY":0.00868429,"INCLINATION":98.1687,"RA_OF_ASC_NODE":134.0913,"ARG_OF_PERICENTER":153.5979,"MEAN_ANOMALY":206.9701,"EPHEMERIS_TYPE":0,"CLASSIFICATION_TYPE":"U","NORAD_CAT_ID":43462,"ELEMENT_SET_NO":999,"REV_AT_EPOCH":42398,"BSTAR":0.00015965796,"MEAN_MOTION_DOT":1.463e-5,"MEAN_MOTION_DDOT":0}]
